{
  "generated_at": "2026-07-13T07:11:34Z",
  "source": "CelesTrak SATCAT gp.php?GROUP=active (HEAD cache, no fetch)",
  "schema_version": "1.0",
  "records": [
    {
      "name": "HST",
      "norad_id": 20580,
      "intl_designator": "90037-261",
      "line1": "1 20580U 90037B   26186.59238743  .00009303  00000+0  29413-3 0  9994",
      "line2": "2 20580  28.4737 314.7660 0001784   9.1068 350.9560 15.30982835791390",
      "category": "science"
    },
    {
      "name": "POLAR",
      "norad_id": 23802,
      "intl_designator": "96013-261",
      "line1": "1 23802U 96013A   26186.52270519  .00000200  00000+0  00000+0 0  9998",
      "line2": "2 23802  79.8773 226.8349 6488923 208.4497  91.0654  1.29846108145099",
      "category": "science"
    },
    {
      "name": "SWAS",
      "norad_id": 25560,
      "intl_designator": "98071-261",
      "line1": "1 25560U 98071A   26186.30307945  .00003466  00000+0  22088-3 0  9998",
      "line2": "2 25560  69.8940 180.7978 0008220 241.4502 118.5835 15.09711451500006",
      "category": "science"
    },
    {
      "name": "CXO",
      "norad_id": 25867,
      "intl_designator": "99040-261",
      "line1": "1 25867U 99040B   26187.88935528  .00000762  00000+0  00000+0 0  9995",
      "line2": "2 25867  56.4267 116.1509 7809224 310.0350   0.5660  0.37802688 17396",
      "category": "science"
    },
    {
      "name": "XMM-NEWTON",
      "norad_id": 25989,
      "intl_designator": "99066-261",
      "line1": "1 25989U 99066A   26181.31376484  .00000075  00000+0  00000+0 0  9997",
      "line2": "2 25989  64.4187 282.8185 4670815  64.6474   0.0796  0.50127122 23075",
      "category": "science"
    },
    {
      "name": "TERRA",
      "norad_id": 25994,
      "intl_designator": "99068-261",
      "line1": "1 25994U 99068A   26186.59504328  .00000519  00000+0  11457-3 0  9995",
      "line2": "2 25994  97.9445 235.4105 0002932 142.1275  18.2573 14.61118865412292",
      "category": "science"
    },
    {
      "name": "CLUSTER II-FM7 (SAMBA)",
      "norad_id": 26410,
      "intl_designator": "00041-261",
      "line1": "1 26410U 00041A   26188.21797159  .00007566  00000+0  00000+0 0  9996",
      "line2": "2 26410 149.8716  54.4790 9079263 271.8893 359.5006  0.44837774 20390",
      "category": "science"
    },
    {
      "name": "CLUSTER II-FM8 (TANGO)",
      "norad_id": 26464,
      "intl_designator": "00045-261",
      "line1": "1 26464U 00045B   26184.19681524  .00012165  00000+0  00000+0 0  9991",
      "line2": "2 26464 150.1065  54.7656 9078555 272.0035   2.3073  0.44420887 20388",
      "category": "science"
    },
    {
      "name": "ODIN",
      "norad_id": 26702,
      "intl_designator": "01007-261",
      "line1": "1 26702U 01007A   26186.08966523  .00444533  00000+0  19065-2 0  9992",
      "line2": "2 26702  97.3754 228.2704 0005229 135.2635 224.9058 15.83958831392221",
      "category": "science"
    },
    {
      "name": "TIMED",
      "norad_id": 26998,
      "intl_designator": "01055-261",
      "line1": "1 26998U 01055B   26186.47373178  .00001405  00000+0  13096-3 0  9999",
      "line2": "2 26998  74.0660 198.1976 0001959 310.6363  49.4651 14.95331317333551",
      "category": "science"
    },
    {
      "name": "CORIOLIS",
      "norad_id": 27640,
      "intl_designator": "03001-261",
      "line1": "1 27640U 03001A   26186.44760548  .00000128  00000+0  80692-4 0  9993",
      "line2": "2 27640  98.7128 193.0537 0014466 155.9156 204.2700 14.19950027216818",
      "category": "science"
    },
    {
      "name": "SORCE",
      "norad_id": 27651,
      "intl_designator": "03004-261",
      "line1": "1 27651U 03004A   26186.33639965  .00004580  00000+0  33697-3 0  9992",
      "line2": "2 27651  39.9893 158.1210 0017595 186.8917 173.1638 15.03806103274637",
      "category": "science"
    },
    {
      "name": "MOST",
      "norad_id": 27843,
      "intl_designator": "03031-261",
      "line1": "1 27843U 03031D   26186.02164963  .00000098  00000+0  64940-4 0  9998",
      "line2": "2 27843  98.7046 193.4986 0009474 194.5645 165.5261 14.21326369193240",
      "category": "science"
    },
    {
      "name": "SCISAT 1",
      "norad_id": 27858,
      "intl_designator": "03036-261",
      "line1": "1 27858U 03036A   26186.32346552  .00000942  00000+0  12487-3 0  9994",
      "line2": "2 27858  73.9297 135.3084 0007872 204.8545 155.2253 14.81471048234139",
      "category": "science"
    },
    {
      "name": "SWIFT",
      "norad_id": 28485,
      "intl_designator": "04047-261",
      "line1": "1 28485U 04047A   26185.92335683  .00087969  00000+0  67937-3 0  9996",
      "line2": "2 28485  20.5532  47.9146 0000857 222.0037 138.0343 15.70170071189653",
      "category": "science"
    },
    {
      "name": "HINODE (SOLAR-B)",
      "norad_id": 29479,
      "intl_designator": "06041-261",
      "line1": "1 29479U 06041A   26186.51270905  .00000944  00000+0  17045-3 0  9990",
      "line2": "2 29479  98.0546 202.3950 0016339 226.5272 133.4575 14.68650049 57568",
      "category": "science"
    },
    {
      "name": "SHIJIAN-6 02A (SJ-6 02A)",
      "norad_id": 29505,
      "intl_designator": "06046-261",
      "line1": "1 29505U 06046A   26186.62618936  .00011783  00000+0  59611-3 0  9995",
      "line2": "2 29505  97.6347 227.8321 0004766  83.8869 276.2907 15.17177383 75063",
      "category": "science"
    },
    {
      "name": "SHIJIAN-6 02B (SJ-6 02B)",
      "norad_id": 29506,
      "intl_designator": "06046-261",
      "line1": "1 29506U 06046B   26186.60734688  .00001838  00000+0  14681-3 0  9995",
      "line2": "2 29506  97.7147 215.5524 0014608   7.4450 352.6988 15.01424618 73500",
      "category": "science"
    },
    {
      "name": "FGRST (GLAST)",
      "norad_id": 33053,
      "intl_designator": "08029-261",
      "line1": "1 33053U 08029A   26186.10371347  .00004771  00000+0  17748-3 0  9990",
      "line2": "2 33053  25.5822  80.0683 0008104 174.9128 185.1493 15.24035495998577",
      "category": "science"
    },
    {
      "name": "SDO",
      "norad_id": 36395,
      "intl_designator": "10005-261",
      "line1": "1 36395U 10005A   26186.29658208 -.00000072  00000+0  00000+0 0  9993",
      "line2": "2 36395  34.6862  86.0692 0001556  54.3097 147.4053  1.00270023 60244",
      "category": "science"
    },
    {
      "name": "CRYOSAT 2",
      "norad_id": 36508,
      "intl_designator": "10013-261",
      "line1": "1 36508U 10013A   26186.41426396  .00000202  00000+0  49535-4 0  9998",
      "line2": "2 36508  92.0360 281.7327 0002242  97.0393 263.1070 14.51896265860724",
      "category": "science"
    },
    {
      "name": "X-SAT",
      "norad_id": 37389,
      "intl_designator": "11015-261",
      "line1": "1 37389U 11015C   26186.61929551  .00000183  00000+0  95420-4 0  9994",
      "line2": "2 37389  98.3523 162.7655 0012890 291.7834  68.1975 14.25211877790301",
      "category": "science"
    },
    {
      "name": "GCOM-W1 (SHIZUKU)",
      "norad_id": 38337,
      "intl_designator": "12025-261",
      "line1": "1 38337U 12025A   26186.30918336  .00000654  00000+0  15519-3 0  9998",
      "line2": "2 38337  98.2023 126.5908 0001465  66.0918  50.4317 14.57142778751679",
      "category": "science"
    },
    {
      "name": "NUSTAR",
      "norad_id": 38358,
      "intl_designator": "12031-261",
      "line1": "1 38358U 12031A   26186.58336806  .00012784  00000+0  73087-3 0  9995",
      "line2": "2 38358   6.0261 256.1377 0007200  16.8558 192.8203 15.08983286  1306",
      "category": "science"
    },
    {
      "name": "NEOSSAT",
      "norad_id": 39089,
      "intl_designator": "13009-261",
      "line1": "1 39089U 13009D   26186.46735308  .00000222  00000+0  91310-4 0  9994",
      "line2": "2 39089  98.4185   6.0659 0010818 185.7712 174.3351 14.35833373699368",
      "category": "science"
    },
    {
      "name": "BRITE-AUSTRIA",
      "norad_id": 39091,
      "intl_designator": "13009-261",
      "line1": "1 39091U 13009F   26186.45688056  .00000249  00000+0  99258-4 0  9991",
      "line2": "2 39091  98.4004   5.4411 0010153 178.8506 181.2706 14.36549976699675",
      "category": "science"
    },
    {
      "name": "IRIS",
      "norad_id": 39197,
      "intl_designator": "13033-261",
      "line1": "1 39197U 13033A   26186.14474590  .00001486  00000+0  17608-3 0  9999",
      "line2": "2 39197  97.9322  25.3652 0022959 259.8349 100.0276 14.85923935703042",
      "category": "science"
    },
    {
      "name": "HISAKI (SPRINT-A)",
      "norad_id": 39253,
      "intl_designator": "13049-261",
      "line1": "1 39253U 13049A   26186.24639182  .00000110  00000+0  59575-4 0  9993",
      "line2": "2 39253  29.7185 128.1930 0136896 163.2653 197.2494 13.55546137633872",
      "category": "science"
    },
    {
      "name": "CASSIOPE",
      "norad_id": 39265,
      "intl_designator": "13055-261",
      "line1": "1 39265U 13055A   26186.58665365  .00047985 -25244-6  51668-3 0  9992",
      "line2": "2 39265  80.9127  44.3479 0285583   0.4342 359.7080 15.26896112670476",
      "category": "science"
    },
    {
      "name": "STSAT-3",
      "norad_id": 39422,
      "intl_designator": "13066-261",
      "line1": "1 39422U 13066G   26186.62309057  .00003993  00000+0  30211-3 0  9994",
      "line2": "2 39422  97.6210 156.2151 0009253 345.0184  15.0766 15.02858672686977",
      "category": "science"
    },
    {
      "name": "SWARM B",
      "norad_id": 39451,
      "intl_designator": "13067-261",
      "line1": "1 39451U 13067A   26186.39849581  .00004918  00000+0  17531-3 0  9990",
      "line2": "2 39451  87.7457 336.7834 0002692  80.0332 280.1220 15.28672902686020",
      "category": "science"
    }
  ]
}