OBJECT_NAME,OBJECT_ID,EPOCH,MEAN_MOTION,ECCENTRICITY,INCLINATION,RA_OF_ASC_NODE,ARG_OF_PERICENTER,MEAN_ANOMALY,EPHEMERIS_TYPE,CLASSIFICATION_TYPE,NORAD_CAT_ID,ELEMENT_SET_NO,REV_AT_EPOCH,BSTAR,MEAN_MOTION_DOT,MEAN_MOTION_DDOT
HST,1990-037B,2026-07-05T14:13:02.273952,15.30982835,.00017844,28.4737,314.7660,9.1068,350.9560,0,U,20580,999,79139,.29413006E-3,.9303E-4,0
POLAR,1996-013A,2026-07-05T12:32:41.728416,1.29846108,.64889233,79.8773,226.8349,208.4497,91.0654,0,U,23802,999,14509,0,.2E-5,0
SWAS,1998-071A,2026-07-05T07:16:26.064480,15.09711451,.000822,69.8940,180.7978,241.4502,118.5835,0,U,25560,999,50000,.22088135E-3,.3466E-4,0
CXO,1999-040B,2026-07-06T21:20:40.296192,0.37802688,.7809224,56.4267,116.1509,310.0350,0.5660,0,U,25867,999,1739,0,.762E-5,0
XMM-NEWTON,1999-066A,2026-06-30T07:31:49.282176,0.50127122,.46708159,64.4187,282.8185,64.6474,0.0796,0,U,25989,999,2307,0,.75E-6,0
TERRA,1999-068A,2026-07-05T14:16:51.739392,14.61118865,.00029321,97.9445,235.4105,142.1275,18.2573,0,U,25994,999,41229,.11456697E-3,.519E-5,0
CLUSTER II-FM7 (SAMBA),2000-041A,2026-07-07T05:13:52.745376,0.44837774,.9079263,149.8716,54.4790,271.8893,359.5006,0,U,26410,999,2039,0,.7566E-4,0
CLUSTER II-FM8 (TANGO),2000-045B,2026-07-03T04:43:24.836736,0.44420887,.9078555,150.1065,54.7656,272.0035,2.3073,0,U,26464,999,2038,0,.12165E-3,0
ODIN,2001-007A,2026-07-05T02:09:07.075872,15.83958831,.00052294,97.3754,228.2704,135.2635,224.9058,0,U,26702,999,39222,.19065116E-2,.444533E-2,0
TIMED,2001-055B,2026-07-05T11:22:10.425792,14.95331317,.0001959,74.0660,198.1976,310.6363,49.4651,0,U,26998,999,33355,.13095735E-3,.1405E-4,0
CORIOLIS,2003-001A,2026-07-05T10:44:33.113472,14.19950027,.00144661,98.7128,193.0537,155.9156,204.2700,0,U,27640,999,21681,.80692197E-4,.128E-5,0
SORCE,2003-004A,2026-07-05T08:04:24.929760,15.03806103,.00175954,39.9893,158.1210,186.8917,173.1638,0,U,27651,999,27463,.33696693E-3,.458E-4,0
MOST,2003-031D,2026-07-05T00:31:10.528032,14.21326369,.0009474,98.7046,193.4986,194.5645,165.5261,0,U,27843,999,19324,.6494E-4,.98E-6,0
SCISAT 1,2003-036A,2026-07-05T07:45:47.420928,14.81471048,.00078724,73.9297,135.3084,204.8545,155.2253,0,U,27858,999,23413,.12487363E-3,.942E-5,0
SWIFT,2004-047A,2026-07-04T22:09:38.030112,15.70170071,.0000857,20.5532,47.9146,222.0037,138.0343,0,U,28485,999,18965,.67937E-3,.87969E-3,0
HINODE (SOLAR-B),2006-041A,2026-07-05T12:18:18.061920,14.68650049,.00163393,98.0546,202.3950,226.5272,133.4575,0,U,29479,999,5756,.17045058E-3,.944E-5,0
SHIJIAN-6 02A (SJ-6 02A),2006-046A,2026-07-05T15:01:42.760704,15.17177383,.00047667,97.6347,227.8321,83.8869,276.2907,0,U,29505,999,7506,.59610566E-3,.11783E-3,0
SHIJIAN-6 02B (SJ-6 02B),2006-046B,2026-07-05T14:34:34.770432,15.01424618,.00146081,97.7147,215.5524,7.4450,352.6988,0,U,29506,999,7350,.14681313E-3,.1838E-4,0
FGRST (GLAST),2008-029A,2026-07-05T02:29:20.843808,15.24035495,.0008104,25.5822,80.0683,174.9128,185.1493,0,U,33053,999,99857,.17748E-3,.4771E-4,0
SDO,2010-005A,2026-07-05T07:07:04.691712,1.00270023,.0001556,34.6862,86.0692,54.3097,147.4053,0,U,36395,999,6024,0,-.72E-6,0
CRYOSAT 2,2010-013A,2026-07-05T09:56:32.406144,14.51896265,.0002242,92.0360,281.7327,97.0393,263.1070,0,U,36508,999,86072,.49535E-4,.202E-5,0
X-SAT,2011-015C,2026-07-05T14:51:47.132064,14.25211877,.00128907,98.3523,162.7655,291.7834,68.1975,0,U,37389,999,79030,.95419813E-4,.183E-5,0
GCOM-W1 (SHIZUKU),2012-025A,2026-07-05T07:25:13.442304,14.57142778,.0001465,98.2023,126.5908,66.0918,50.4317,0,U,38337,999,75167,.15519E-3,.654E-5,0
NUSTAR,2012-031A,2026-07-05T14:00:03.000384,15.08983286,.00072,6.0261,256.1377,16.8558,192.8203,0,U,38358,999,130,.73087E-3,.12784E-3,0
NEOSSAT,2013-009D,2026-07-05T11:12:59.306112,14.35833373,.0010818,98.4185,6.0659,185.7712,174.3351,0,U,39089,999,69936,.9131E-4,.222E-5,0
BRITE-AUSTRIA,2013-009F,2026-07-05T10:57:54.480384,14.36549976,.0010153,98.4004,5.4411,178.8506,181.2706,0,U,39091,999,69967,.99258E-4,.249E-5,0
IRIS,2013-033A,2026-07-05T03:28:26.045760,14.85923935,.0022959,97.9322,25.3652,259.8349,100.0276,0,U,39197,999,70304,.17608E-3,.1486E-4,0
HISAKI (SPRINT-A),2013-049A,2026-07-05T05:54:48.253248,13.55546137,.0136896,29.7185,128.1930,163.2653,197.2494,0,U,39253,999,63387,.59575E-4,.11E-5,0
CASSIOPE,2013-055A,2026-07-05T14:04:46.875360,15.26896112,.0285583,80.9127,44.3479,0.4342,359.7080,0,U,39265,999,67047,.51667539E-3,.47985E-3,-.252438E-6
STSAT-3,2013-066G,2026-07-05T14:57:15.025248,15.02858672,.00092534,97.6210,156.2151,345.0184,15.0766,0,U,39422,999,68697,.30210617E-3,.3993E-4,0
SWARM B,2013-067A,2026-07-05T09:33:50.037984,15.28672902,.0002692,87.7457,336.7834,80.0332,280.1220,0,U,39451,999,68602,.17531E-3,.4918E-4,0
